{"type": "FeatureCollection", "features": [ {"type": "Feature", "properties": {"norad_id": 30569, "name": "FENGYUN 1C DEB", "group": "fengyun-1c-debris", "lat": -11.54906283387545, "lon": -60.31284605638753, "alt_km": 654.2794379295829, "timestamp": "2025-12-08T19:31:49.086564+00:00", "meta": {"OBJECT_NAME": "FENGYUN 1C DEB", "OBJECT_ID": "1999-025ALK", "EPOCH": "2025-12-07T21:28:31.866528", "MEAN_MOTION": 14.73327593, "ECCENTRICITY": 0.00066277, "INCLINATION": 98.7387, "RA_OF_ASC_NODE": 120.4996, "ARG_OF_PERICENTER": 108.9077, "MEAN_ANOMALY": 251.2848, "EPHEMERIS_TYPE": 0, "CLASSIFICATION_TYPE": "U", "NORAD_CAT_ID": 30569, "ELEMENT_SET_NO": 999, "REV_AT_EPOCH": 98135, "BSTAR": 0.0046853251, "MEAN_MOTION_DOT": 0.00030405, "MEAN_MOTION_DDOT": 0}, "tle": {"line1": "1 30569U 99025ALK 25341.89481327  .00030405  00000+0  46853-2 0  9994", "line2": "2 30569  98.7387 120.4996 0006627 108.9077 251.2848 14.73327593981351"}}, "geometry": {"type": "Point", "coordinates": [-60.31284605638753, -11.54906283387545]}}, {"type": "Feature", "properties": {"norad_id": 30570, "name": "FENGYUN 1C DEB", "group": "fengyun-1c-debris", "lat": -3.092766464087653, "lon": -165.04446809542767, "alt_km": 828.7748068395485, "timestamp": "2025-12-08T19:31:49.086573+00:00", "meta": {"OBJECT_NAME": "FENGYUN 1C DEB", "OBJECT_ID": "1999-025ALL", "EPOCH": "2025-12-08T01:56:43.808640", "MEAN_MOTION": 14.14255314, "ECCENTRICITY": 0.00350711, "INCLINATION": 98.7157, "RA_OF_ASC_NODE": 14.7157, "ARG_OF_PERICENTER": 225.3788, "MEAN_ANOMALY": 189.5698, "EPHEMERIS_TYPE": 0, "CLASSIFICATION_TYPE": "U", "NORAD_CAT_ID": 30570, "ELEMENT_SET_NO": 999, "REV_AT_EPOCH": 96932, "BSTAR": 0.00070342436, "MEAN_MOTION_DOT": 1.307e-05, "MEAN_MOTION_DDOT": 0}, "tle": {"line1": "1 30570U 99025ALL 25342.08106260  .00001307  00000+0  70342-3 0  9998", "line2": "2 30570  98.7157  14.7157 0035071 225.3788 189.5698 14.14255314969325"}}, "geometry": {"type": "Point", "coordinates": [-165.04446809542767, -3.092766464087653]}}, {"type": "Feature", "properties": {"norad_id": 30571, "name": "FENGYUN 1C DEB", "group": "fengyun-1c-debris", "lat": 9.898409035230005, "lon": -169.3241633434657, "alt_km": 854.7928041039468, "timestamp": "2025-12-08T19:31:49.086583+00:00", "meta": {"OBJECT_NAME": "FENGYUN 1C DEB", "OBJECT_ID": "1999-025ALM", "EPOCH": "2025-12-08T01:49:06.714624", "MEAN_MOTION": 14.10688518, "ECCENTRICITY": 0.00206147, "INCLINATION": 98.7315, "RA_OF_ASC_NODE": 8.4222, "ARG_OF_PERICENTER": 247.5358, "MEAN_ANOMALY": 136.7857, "EPHEMERIS_TYPE": 0, "CLASSIFICATION_TYPE": "U", "NORAD_CAT_ID": 30571, "ELEMENT_SET_NO": 999, "REV_AT_EPOCH": 96821, "BSTAR": 0.00042330311, "MEAN_MOTION_DOT": 7.15e-06, "MEAN_MOTION_DDOT": 0}, "tle": {"line1": "1 30571U 99025ALM 25342.07577216  .00000715  00000+0  42330-3 0  9999", "line2": "2 30571  98.7315   8.4222 0020614 247.5358 136.7857 14.10688518968211"}}, "geometry": {"type": "Point", "coordinates": [-169.3241633434657, 9.898409035230005]}}, {"type": "Feature", "properties": {"norad_id": 30572, "name": "FENGYUN 1C DEB", "group": "fengyun-1c-debris", "lat": 75.50500108609941, "lon": -130.78148555935408, "alt_km": 869.9691017321411, "timestamp": "2025-12-08T19:31:49.086592+00:00", "meta": {"OBJECT_NAME": "FENGYUN 1C DEB", "OBJECT_ID": "1999-025ALN", "EPOCH": "2025-12-08T00:37:38.255808", "MEAN_MOTION": 14.08914264, "ECCENTRICITY": 0.00212408, "INCLINATION": 98.7726, "RA_OF_ASC_NODE": 11.7755, "ARG_OF_PERICENTER": 307.5214, "MEAN_ANOMALY": 121.2535, "EPHEMERIS_TYPE": 0, "CLASSIFICATION_TYPE": "U", "NORAD_CAT_ID": 30572, "ELEMENT_SET_NO": 999, "REV_AT_EPOCH": 96695, "BSTAR": 0.00049976289, "MEAN_MOTION_DOT": 8.23e-06, "MEAN_MOTION_DDOT": 0}, "tle": {"line1": "1 30572U 99025ALN 25342.02613722  .00000823  00000+0  49976-3 0  9991", "line2": "2 30572  98.7726  11.7755 0021240 307.5214 121.2535 14.08914264966958"}}, "geometry": {"type": "Point", "coordinates": [-130.78148555935408, 75.50500108609941]}}, {"type": "Feature", "properties": {"norad_id": 30573, "name": "FENGYUN 1C DEB", "group": "fengyun-1c-debris", "lat": -37.46796133467429, "lon": 27.58089113680677, "alt_km": 801.7625979555505, "timestamp": "2025-12-08T19:31:49.086602+00:00", "meta": {"OBJECT_NAME": "FENGYUN 1C DEB", "OBJECT_ID": "1999-025ALP", "EPOCH": "2025-12-08T01:09:54.789984", "MEAN_MOTION": 14.13789063, "ECCENTRICITY": 0.00881683, "INCLINATION": 99.2262, "RA_OF_ASC_NODE": 19.6354, "ARG_OF_PERICENTER": 287.0208, "MEAN_ANOMALY": 101.9087, "EPHEMERIS_TYPE": 0, "CLASSIFICATION_TYPE": "U", "NORAD_CAT_ID": 30573, "ELEMENT_SET_NO": 999, "REV_AT_EPOCH": 96131, "BSTAR": 0.0024543964, "MEAN_MOTION_DOT": 4.775e-05, "MEAN_MOTION_DDOT": 0}, "tle": {"line1": "1 30573U 99025ALP 25342.04855081  .00004775  00000+0  24544-2 0  9993", "line2": "2 30573  99.2262  19.6354 0088168 287.0208 101.9087 14.13789063961314"}}, "geometry": {"type": "Point", "coordinates": [27.58089113680677, -37.46796133467429]}}, {"type": "Feature", "properties": {"norad_id": 30574, "name": "FENGYUN 1C DEB", "group": "fengyun-1c-debris", "lat": 47.931580195077736, "lon": 136.02069784081988, "alt_km": 864.9300183289206, "timestamp": "2025-12-08T19:31:49.086611+00:00", "meta": {"OBJECT_NAME": "FENGYUN 1C DEB", "OBJECT_ID": "1999-025ALQ", "EPOCH": "2025-12-07T22:23:05.780256", "MEAN_MOTION": 13.77487686, "ECCENTRICITY": 0.02189546, "INCLINATION": 99.3023, "RA_OF_ASC_NODE": 145.6201, "ARG_OF_PERICENTER": 0.2226, "MEAN_ANOMALY": 359.8986, "EPHEMERIS_TYPE": 0, "CLASSIFICATION_TYPE": "U", "NORAD_CAT_ID": 30574, "ELEMENT_SET_NO": 999, "REV_AT_EPOCH": 93702, "BSTAR": 0.0027328429, "MEAN_MOTION_DOT": 3.204e-05, "MEAN_MOTION_DDOT": 0}, "tle": {"line1": "1 30574U 99025ALQ 25341.93270579  .00003204  00000+0  27328-2 0  9993", "line2": "2 30574  99.3023 145.6201 0218954   0.2226 359.8986 13.77487686937023"}}, "geometry": {"type": "Point", "coordinates": [136.02069784081988, 47.931580195077736]}}, {"type": "Feature", "properties": {"norad_id": 30575, "name": "FENGYUN 1C DEB", "group": "fengyun-1c-debris", "lat": 21.14620979144696, "lon": 69.87379332444523, "alt_km": 784.6485926089936, "timestamp": "2025-12-08T19:31:49.086620+00:00", "meta": {"OBJECT_NAME": "FENGYUN 1C DEB", "OBJECT_ID": "1999-025ALR", "EPOCH": "2025-12-08T06:25:36.231744", "MEAN_MOTION": 14.40016699, "ECCENTRICITY": 0.00539842, "INCLINATION": 99.1702, "RA_OF_ASC_NODE": 72.8718, "ARG_OF_PERICENTER": 249.6766, "MEAN_ANOMALY": 182.606, "EPHEMERIS_TYPE": 0, "CLASSIFICATION_TYPE": "U", "NORAD_CAT_ID": 30575, "ELEMENT_SET_NO": 999, "REV_AT_EPOCH": 98153, "BSTAR": 0.0015325981, "MEAN_MOTION_DOT": 4.865e-05, "MEAN_MOTION_DDOT": 0}, "tle": {"line1": "1 30575U 99025ALR 25342.26778046  .00004865  00000+0  15326-2 0  9992", "line2": "2 30575  99.1702  72.8718 0053984 249.6766 182.6060 14.40016699981531"}}, "geometry": {"type": "Point", "coordinates": [69.87379332444523, 21.14620979144696]}}, {"type": "Feature", "properties": {"norad_id": 30577, "name": "FENGYUN 1C DEB", "group": "fengyun-1c-debris", "lat": 57.98018093814227, "lon": -148.8709490583348, "alt_km": 870.4324006741936, "timestamp": "2025-12-08T19:31:49.086629+00:00", "meta": {"OBJECT_NAME": "FENGYUN 1C DEB", "OBJECT_ID": "1999-025ALT", "EPOCH": "2025-12-08T02:02:06.031392", "MEAN_MOTION": 14.1113119, "ECCENTRICITY": 0.00286459, "INCLINATION": 98.7709, "RA_OF_ASC_NODE": 16.1243, "ARG_OF_PERICENTER": 295.7901, "MEAN_ANOMALY": 83.9532, "EPHEMERIS_TYPE": 0, "CLASSIFICATION_TYPE": "U", "NORAD_CAT_ID": 30577, "ELEMENT_SET_NO": 999, "REV_AT_EPOCH": 96719, "BSTAR": 0.00073623153, "MEAN_MOTION_DOT": 1.288e-05, "MEAN_MOTION_DDOT": 0}, "tle": {"line1": "1 30577U 99025ALT 25342.08479203  .00001288  00000+0  73623-3 0  9998", "line2": "2 30577  98.7709  16.1243 0028645 295.7901  83.9532 14.11131190967193"}}, "geometry": {"type": "Point", "coordinates": [-148.8709490583348, 57.98018093814227]}}, {"type": "Feature", "properties": {"norad_id": 30579, "name": "FENGYUN 1C DEB", "group": "fengyun-1c-debris", "lat": 48.30187665729909, "lon": -2.4192465133488725, "alt_km": 854.7929338023687, "timestamp": "2025-12-08T19:31:49.086638+00:00", "meta": {"OBJECT_NAME": "FENGYUN 1C DEB", "OBJECT_ID": "1999-025ALV", "EPOCH": "2025-12-08T07:24:41.197824", "MEAN_MOTION": 14.0524234, "ECCENTRICITY": 0.00537095, "INCLINATION": 98.807, "RA_OF_ASC_NODE": 7.1117, "ARG_OF_PERICENTER": 115.7594, "MEAN_ANOMALY": 260.8699, "EPHEMERIS_TYPE": 0, "CLASSIFICATION_TYPE": "U", "NORAD_CAT_ID": 30579, "ELEMENT_SET_NO": 999, "REV_AT_EPOCH": 96395, "BSTAR": 0.00054369302, "MEAN_MOTION_DOT": 8.48e-06, "MEAN_MOTION_DDOT": 0}, "tle": {"line1": "1 30579U 99025ALV 25342.30881016  .00000848  00000+0  54369-3 0  9991", "line2": "2 30579  98.8070   7.1117 0053709 115.7594 260.8699 14.05242340963958"}}, "geometry": {"type": "Point", "coordinates": [-2.4192465133488725, 48.30187665729909]}}, {"type": "Feature", "properties": {"norad_id": 30594, "name": "FENGYUN 1C DEB", "group": "fengyun-1c-debris", "lat": 24.29387602833176, "lon": 23.048878575123588, "alt_km": 972.0536005130962, "timestamp": "2025-12-08T19:31:49.086648+00:00", "meta": {"OBJECT_NAME": "FENGYUN 1C DEB", "OBJECT_ID": "1999-025ALZ", "EPOCH": "2025-12-06T21:02:56.224032", "MEAN_MOTION": 14.17332238, "ECCENTRICITY": 0.01936541, "INCLINATION": 99.1517, "RA_OF_ASC_NODE": 196.8816, "ARG_OF_PERICENTER": 333.0071, "MEAN_ANOMALY": 26.1131, "EPHEMERIS_TYPE": 0, "CLASSIFICATION_TYPE": "U", "NORAD_CAT_ID": 30594, "ELEMENT_SET_NO": 999, "REV_AT_EPOCH": 97496, "BSTAR": 0.00032887954, "MEAN_MOTION_DOT": 7.5e-06, "MEAN_MOTION_DDOT": 0}, "tle": {"line1": "1 30594U 99025ALZ 25340.87703963  .00000750  00000+0  32888-3 0  9996", "line2": "2 30594  99.1517 196.8816 0193654 333.0071  26.1131 14.17332238974962"}}, "geometry": {"type": "Point", "coordinates": [23.048878575123588, 24.29387602833176]}}]}